NORAD_CAT_ID,OBJECT_NAME,OBJECT_TYPE,EPOCH,MEAN_MOTION,ECCENTRICITY,INCLINATION,RA_OF_ASC_NODE,ARG_OF_PERICENTER,MEAN_ANOMALY,BSTAR,MEAN_MOTION_DOT,MEAN_MOTION_DDOT,TLE_LINE0,TLE_LINE1,TLE_LINE2,SEMIMAJOR_AXIS,PERIOD,APOGEE,PERIGEE,DECAYED
49413.0,STARLINK-3157,PAYLOAD,2022-01-12 14:00:01,15.58169142,0.000195,53.2177,196.3059,30.3069,108.9902,-0.0092583,-0.00656089,0.0,0 STARLINK-3157,1 49413U 21104F   22012.58334491 -.00656089  00000-0 -92583-2 0  9998,2 49413  53.2177 196.3059 0001950  30.3069 108.9902 15.58169142 10740,6771.093000000003,92.416,394.278,391.638,0.0
49413.0,STARLINK-3157,PAYLOAD,2022-01-13 14:00:01,15.56772003,0.0001864,53.2176,191.4665,28.2553,321.1129,-0.0098255,-0.00660195,0.0,0 STARLINK-3157,1 49413U 21104F   22013.58334491 -.00660195  00000-0 -98255-2 0  9994,2 49413  53.2176 191.4665 0001864  28.2553 321.1129 15.56772003 10896,6775.144,92.499,398.271,395.746,0.0
49413.0,STARLINK-3157,PAYLOAD,2022-01-13 22:00:00,15.56300913,0.0001623,53.2173,189.8574,34.6913,23.5804,-0.0098831,-0.00653007,0.0,0 STARLINK-3157,1 49413U 21104F   22013.91667824 -.00653007  00000-0 -98831-2 0  9994,2 49413  53.2173 189.8574 0001623  34.6913  23.5804 15.56300913  3675,6776.511,92.527,399.475,397.276,0.0
49413.0,STARLINK-3157,PAYLOAD,2022-01-14 14:00:01,15.55369629,0.0001905,53.2175,186.6373,34.8921,159.5035,-0.010273,-0.00655487,0.0,0 STARLINK-3157,1 49413U 21104F   22014.58334491 -.00655487  00000-0 -10273-1 0  9996,2 49413  53.2175 186.6373 0001905  34.8921 159.5035 15.55369629  3688,6779.215,92.582,402.372,399.789,0.0
49413.0,STARLINK-3157,PAYLOAD,2022-01-14 22:00:00,15.5490073,0.0001701,53.2175,185.0313,38.7473,222.8688,-0.010382,-0.00651346,0.0,0 STARLINK-3157,1 49413U 21104F   22014.91667824 -.00651346  00000-0 -10382-1 0  9993,2 49413  53.2175 185.0313 0001701  38.7473 222.8688 15.54900730 11101,6780.578,92.61,403.597,401.29,0.0
49413.0,STARLINK-3157,PAYLOAD,2022-01-15 14:00:01,15.53972245,0.0001757,53.2177,181.8183,30.0644,4.3756,-0.010888,-0.00659461,0.0,0 STARLINK-3157,1 49413U 21104F   22015.58335648 -.00659461  00000-0 -10888-1 0  9990,2 49413  53.2177 181.8183 0001757  30.0644   4.3756 15.53972245  3691,6783.279,92.666,406.336,403.952,0.0
49413.0,STARLINK-3157,PAYLOAD,2022-01-15 22:00:01,15.53500626,0.0001743,53.2173,180.2155,33.5722,66.4078,-0.010918,-0.00650676,0.0,0 STARLINK-3157,1 49413U 21104F   22015.91668981 -.00650676  00000-0 -10918-1 0  9999,2 49413  53.2173 180.2155 0001743  33.5722  66.4078 15.53500626 11256,6784.651999999999,92.694,407.699,405.334,0.0
49413.0,STARLINK-3157,PAYLOAD,2022-01-16 14:00:01,15.52570178,0.0001888,53.2176,177.0093,35.4251,193.8858,-0.011376,-0.00655035,0.0,0 STARLINK-3157,1 49413U 21104F   22016.58334491 -.00655035  00000-0 -11376-1 0  9992,2 49413  53.2176 177.0093 0001888  35.4251 193.8858 15.52570178  3713,6787.361999999999,92.749,410.508,407.946,0.0
49413.0,STARLINK-3157,PAYLOAD,2022-01-16 22:00:00,15.521024300000002,0.000152,53.2172,175.4097,44.1192,249.0483,-0.01152,-0.00652338,0.0,0 STARLINK-3157,1 49413U 21104F   22016.91667824 -.00652338  00000-0 -11520-1 0  9992,2 49413  53.2172 175.4097 0001520  44.1192 249.0483 15.52102430  3696,6788.726,92.777,411.622,409.559,0.0
49413.0,STARLINK-3157,PAYLOAD,2022-01-17 00:00:00,15.51961291,0.00017,53.2166,175.0105,33.2624,5.7926,-0.010916,-0.00617739,0.0,0 STARLINK-3157,1 49413U 21104F   22017.00001157 -.00617739  00000-0 -10916-1 0  9998,2 49413  53.2166 175.0105 0001700  33.2624   5.7926 15.51961291 11420,6789.137,92.786,412.156,409.848,0.0
49413.0,STARLINK-3157,PAYLOAD,2022-01-17 14:00:01,15.51171986,0.0001835,53.2174,172.2106,30.0787,29.1209,-0.012019,-0.00657741,0.0,0 STARLINK-3157,1 49413U 21104F   22017.58334491 -.00657741  00000-0 -12019-1 0  9994,2 49413  53.2174 172.2106 0001835  30.0787  29.1209 15.51171986 11511,6791.44,92.833,414.551,412.059,0.0
49413.0,STARLINK-3157,PAYLOAD,2022-01-17 22:00:00,15.5070285,0.0001631,53.2171,170.6141,38.7577,82.6172,-0.012124,-0.00652795,0.0,0 STARLINK-3157,1 49413U 21104F   22017.91667824 -.00652795  00000-0 -12124-1 0  9991,2 49413  53.2171 170.6141 0001631  38.7577  82.6172 15.50702850  3697,6792.81,92.861,415.783,413.567,0.0
49413.0,STARLINK-3157,PAYLOAD,2022-01-18 14:00:01,15.49770544,0.0002015,53.2175,167.4219,32.305,211.7385,-0.012569,-0.00654533,0.0,0 STARLINK-3157,1 49413U 21104F   22018.58334491 -.00654533  00000-0 -12569-1 0  9991,2 49413  53.2175 167.4219 0002015  32.3050 211.7385 15.49770544  3687,6795.534000000002,92.917,418.768,416.029,0.0
49413.0,STARLINK-3157,PAYLOAD,2022-01-18 22:00:00,15.49196446,0.0001652,53.2173,165.8294,43.5036,261.051,-0.0065172,-0.00345965,0.0,0 STARLINK-3157,1 49413U 21104F   22018.91667824 -.00345965  00000-0 -65172-2 0  9992,2 49413  53.2173 165.8294 0001652  43.5036 261.0510 15.49196446 11729,6797.212,92.951,420.2,417.955,0.0
49413.0,STARLINK-3157,PAYLOAD,2022-01-19 06:00:02,15.48946935,0.0001852,53.2174,164.2359,31.5203,333.0318,3.4284e-05,1.436e-05,0.0,0 STARLINK-3157,1 49413U 21104F   22019.25002315  .00001436  00000-0  34284-4 0  9990,2 49413  53.2174 164.2359 0001852  31.5203 333.0318 15.48946935 11776,6797.941999999999,92.966,421.066,418.548,0.0
49413.0,STARLINK-3157,PAYLOAD,2022-01-19 14:00:01,15.4901158,0.0001483,53.2161,162.6559,0.5889,63.7166,0.00045323,0.00024575,0.0,0 STARLINK-3157,1 49413U 21104F   22019.58334491  .00024575  00000-0  45323-3 0  9993,2 49413  53.2161 162.6559 0001483   0.5889  63.7166 15.49011580 11826,6797.753000000002,92.963,420.626,418.61,0.0
49413.0,STARLINK-3157,PAYLOAD,2022-01-19 22:00:00,15.49208642,0.0001798,53.2159,161.0612,13.726,110.4201,-0.0083863999999999,-0.0044002,0.0,0 STARLINK-3157,1 49413U 21104F   22019.91667824 -.00440020  00000-0 -83864-2 0  9999,2 49413  53.2159 161.0612 0001798  13.7260 110.4201 15.49208642  3686,6797.177,92.951,420.264,417.82,0.0
49413.0,STARLINK-3157,PAYLOAD,2022-01-20 06:00:00,15.48759144,0.0001863,53.2171,159.4631,22.9966,161.1285,-0.0052306,-0.00275947,0.0,0 STARLINK-3157,1 49413U 21104F   22020.25001157 -.00275947  00000-0 -52306-2 0  9990,2 49413  53.2171 159.4631 0001863  22.9966 161.1285 15.48759144 11939,6798.4919999999975,92.978,421.62300000000016,419.09,0.0
49413.0,STARLINK-3157,PAYLOAD,2022-01-20 14:00:01,15.48215857,0.0001571,53.2177,157.8701,45.4662,198.1983,-0.0023113,-0.00122232,0.0,0 STARLINK-3157,1 49413U 21104F   22020.58334491 -.00122232  00000-0 -23113-2 0  9998,2 49413  53.2177 157.8701 0001571  45.4662 198.1983 15.48215857 11982,6800.081999999999,93.01,423.016,420.879,0.0
49413.0,STARLINK-3157,PAYLOAD,2022-01-20 22:00:00,15.48126754,0.0001547,53.2171,156.28,42.272,260.274,-0.013383,-0.0065727,0.0,0 STARLINK-3157,1 49413U 21104F   22020.91667824 -.00657270  00000-0 -13383-1 0  9996,2 49413  53.2171 156.2800 0001547  42.2720 260.2740 15.48126754 12038,6800.343000000003,93.016,423.26,421.156,0.0
49413.0,STARLINK-3157,PAYLOAD,2022-01-21 14:00:01,15.47093901,0.0001408,53.2172,153.1026,25.0425,34.0263,-0.010908,-0.00525542,0.0,0 STARLINK-3157,1 49413U 21104F   22021.58334491 -.00525542  00000-0 -10908-1 0  9997,2 49413  53.2172 153.1026 0001408  25.0425  34.0263 15.47093901  3653,6803.369000000002,93.078,426.192,424.277,0.0
49413.0,STARLINK-3157,PAYLOAD,2022-01-21 22:00:00,15.4672527,0.000165,53.2171,151.513,38.7109,77.7003,-0.013987,-0.00654353,0.0,0 STARLINK-3157,1 49413U 21104F   22021.91667824 -.00654353  00000-0 -13987-1 0  9996,2 49413  53.2171 151.5130 0001650  38.7109  77.7003 15.46725270  3688,6804.45,93.1,427.43800000000016,425.193,0.0
49413.0,STARLINK-3157,PAYLOAD,2022-01-22 02:00:01,15.46494587,0.0001517,53.2174,150.7186,39.6826,285.215,-0.014208,-0.00658967,0.0,0 STARLINK-3157,1 49413U 21104F   22022.08334491 -.00658967  00000-0 -14208-1 0  9998,2 49413  53.2174 150.7186 0001517  39.6826 285.2150 15.46494587  3673,6805.127,93.114,428.024,425.96,0.0
49413.0,STARLINK-3157,PAYLOAD,2022-01-22 06:00:00,15.46259432,0.00017,53.2171,149.9244,41.5743,131.6715,-0.014262,-0.00656349,0.0,0 STARLINK-3157,1 49413U 21104F   22022.25001157 -.00656349  00000-0 -14262-1 0  9999,2 49413  53.2171 149.9244 0001700  41.5743 131.6715 15.46259432 12241,6805.816999999999,93.128,428.839,426.525,0.0
49413.0,STARLINK-3157,PAYLOAD,2022-01-22 22:00:00,15.45327606,0.0001467,53.2172,146.7558,49.731,235.4984,-0.014772,-0.00658092,0.0,0 STARLINK-3157,1 49413U 21104F   22022.91667824 -.00658092  00000-0 -14772-1 0  9994,2 49413  53.2172 146.7558 0001467  49.7310 235.4984 15.45327606  3671,6808.553000000001,93.184,431.416,429.419,0.0
49413.0,STARLINK-3157,PAYLOAD,2022-01-23 14:00:01,15.44393466,0.000195,53.2175,143.5904,28.1799,6.7922,-0.015204,-0.00656201,0.0,0 STARLINK-3157,1 49413U 21104F   22023.58334491 -.00656201  00000-0 -15204-1 0  9990,2 49413  53.2175 143.5904 0001950  28.1799   6.7922 15.44393466 12445,6811.2980000000025,93.24,434.491,431.835,0.0
49413.0,STARLINK-3157,PAYLOAD,2022-01-23 22:00:00,15.43925735,0.0001585999999999,53.2172,142.0089,40.0668,48.9361,-0.015388,-0.00653765,0.0,0 STARLINK-3157,1 49413U 21104F   22023.91667824 -.00653765  00000-0 -15388-1 0  9991,2 49413  53.2172 142.0089 0001586  40.0668  48.9361 15.43925735  3672,6812.6730000000025,93.269,435.619,433.458,0.0
49413.0,STARLINK-3157,PAYLOAD,2022-01-24 14:00:01,15.42991702,0.0002208,53.2174,138.8501,29.9084,165.4736,-0.01586,-0.00660751,0.0,0 STARLINK-3157,1 49413U 21104F   22024.58334491 -.00660751  00000-0 -15860-1 0  9994,2 49413  53.2174 138.8501 0002208  29.9084 165.4736 15.42991702  3673,6815.422,93.325,438.792,435.783,0.0
49413.0,STARLINK-3157,PAYLOAD,2022-01-24 22:00:00,15.42527454,0.0001553,53.2172,137.2718,50.6155,197.1144,-0.016216,-0.00664678,0.0,0 STARLINK-3157,1 49413U 21104F   22024.91667824 -.00664678  00000-0 -16216-1 0  9998,2 49413  53.2172 137.2718 0001553  50.6155 197.1144 15.42527454 12658,6816.79,93.353,439.714,437.596,0.0
